GLOBALSTAR M067 [+]     
1 32263U 07048A   24094.44340473 -.00000041  00000+0  41935-3 0  9993
2 32263  51.9715 242.6264 0001657 118.1825 256.3145 12.40641632754907
GLOBALSTAR M070 [+]     
1 32264U 07048B   24094.54326597 -.00000084  00000+0  11122-3 0  9998
2 32264  51.9777  27.8030 0000355 100.0383  71.2733 12.62288979758145
GLOBALSTAR M066 [+]     
1 32265U 07048C   24094.47288633 -.00000070  00000+0  19076-3 0  9990
2 32265  51.9664 250.0130 0001243  95.8482 299.0002 12.62258918760401
GLOBALSTAR M068 [-]     
1 32266U 07048D   24094.73174487 -.00000057  00000+0  25971-3 0  9997
2 32266  51.9878 201.8191 0000692 204.4826 319.6126 12.62783382762324
GLOBALSTAR M079 [+]     
1 37188U 10054A   24094.57145869 -.00000092  00000+0  66926-4 0  9995
2 37188  52.0061  38.0446 0000728  65.5980 105.2378 12.62267828620938
GLOBALSTAR M074 [+]     
1 37189U 10054B   24094.59792309 -.00000098  00000+0  33133-4 0  9995
2 37189  52.0039  37.3555 0000460  74.6602  95.9238 12.62266430621548
GLOBALSTAR M076 [+]     
1 37190U 10054C   24094.62443331 -.00000096  00000+0  46044-4 0  9992
2 37190  52.0052  37.4054 0000925  97.9579  73.4646 12.62276122621269
GLOBALSTAR M077 [+]     
1 37191U 10054D   24094.45294593 -.00000075  00000+0  15784-3 0  9991
2 37191  52.0100 354.6609 0000647  85.9398  85.1315 12.62270982621611
